[{"OBJECT_NAME":"KINEIS-1C","OBJECT_ID":"2024-114C","EPOCH":"2026-03-10T00:10:11.544384","MEAN_MOTION":14.80409337,"ECCENTRICITY":0.00022495,"INCLINATION":97.9945,"RA_OF_ASC_NODE":93.4647,"ARG_OF_PERICENTER":117.2178,"MEAN_ANOMALY":242.9263,"EPHEMERIS_TYPE":0,"CLASSIFICATION_TYPE":"U","NORAD_CAT_ID":60081,"ELEMENT_SET_NO":999,"REV_AT_EPOCH":9270,"BSTAR":0.00020502578,"MEAN_MOTION_DOT":1.513e-5,"MEAN_MOTION_DDOT":0},{"OBJECT_NAME":"KUIPER-00168","OBJECT_ID":"2025-217V","EPOCH":"2026-03-09T06:15:00.798624","MEAN_MOTION":14.79965894,"ECCENTRICITY":0.00010664,"INCLINATION":51.903,"RA_OF_ASC_NODE":29.9974,"ARG_OF_PERICENTER":89.3671,"MEAN_ANOMALY":270.7414,"EPHEMERIS_TYPE":0,"CLASSIFICATION_TYPE":"U","NORAD_CAT_ID":65781,"ELEMENT_SET_NO":999,"REV_AT_EPOCH":2502,"BSTAR":0.00079707781,"MEAN_MOTION_DOT":5.865e-5,"MEAN_MOTION_DDOT":0}]
